NORAD_CAT_ID,OBJECT_NAME,OBJECT_TYPE,EPOCH,MEAN_MOTION,ECCENTRICITY,INCLINATION,RA_OF_ASC_NODE,ARG_OF_PERICENTER,MEAN_ANOMALY,BSTAR,MEAN_MOTION_DOT,MEAN_MOTION_DDOT,TLE_LINE0,TLE_LINE1,TLE_LINE2,SEMIMAJOR_AXIS,PERIOD,APOGEE,PERIGEE,DECAYED
50180.0,STARLINK-3265,PAYLOAD,2023-11-21 09:59:20,15.08842529,0.0001468,53.2181,56.779,92.1501,267.966,8.5732e-05,1.077e-05,0.0,0 STARLINK-3265,1 50180U 21125AA  23325.41621273  .00001077  00000-0  85732-4 0  9990,2 50180  53.2181  56.7790 0001468  92.1501 267.9660 15.08842529106813,6917.873,95.437,540.753,538.722,0.0
50180.0,STARLINK-3265,PAYLOAD,2023-11-21 13:10:06,15.08848399,0.0001464,53.2195,56.1843,101.0725,259.0432,0.00011085,1.477e-05,0.0,0 STARLINK-3265,1 50180U 21125AA  23325.54868848  .00001477  00000-0  11085-3 0  9998,2 50180  53.2195  56.1843 0001464 101.0725 259.0432 15.08848399109964,6917.855,95.437,540.732,538.707,0.0
50180.0,STARLINK-3265,PAYLOAD,2023-11-21 16:20:52,15.08854788,0.0001413,53.2177,55.5878,91.9361,268.1793,0.00012226,1.659e-05,0.0,0 STARLINK-3265,1 50180U 21125AA  23325.68116544  .00001659  00000-0  12226-3 0  9992,2 50180  53.2177  55.5878 0001413  91.9361 268.1793 15.08854788109984,6917.835,95.437,540.678,538.723,0.0
50180.0,STARLINK-3265,PAYLOAD,2023-11-22 11:25:30,15.08851849,9.73e-05,53.2191,52.0153,73.7547,286.3552,0.00011212,1.498e-05,0.0,0 STARLINK-3265,1 50180U 21125AA  23326.47604338  .00001498  00000-0  11212-3 0  9998,2 50180  53.2191  52.0153 0000973  73.7547 286.3552 15.08851849106978,6917.844,95.437,540.382,539.036,0.0
50180.0,STARLINK-3265,PAYLOAD,2023-11-23 00:08:35,15.08846514,0.000202,53.2187,49.6422,116.0635,244.0566,0.00012741,1.74e-05,0.0,0 STARLINK-3265,1 50180U 21125AA  23327.00596756  .00001740  00000-0  12741-3 0  9990,2 50180  53.2187  49.6422 0002020 116.0635 244.0566 15.08846514107057,6917.86,95.437,541.123,538.328,0.0
50180.0,STARLINK-3265,PAYLOAD,2023-11-23 11:16:17,15.0883841,0.0001819,53.218,47.5583,117.0268,243.091,-7.5398e-05,-1.488e-05,0.0,0 STARLINK-3265,1 50180U 21125AA  23327.46964855 -.00001488  00000-0 -75398-4 0  9998,2 50180  53.2180  47.5583 0001819 117.0268 243.0910 15.08838410107129,6917.885,95.438,541.009,538.492,0.0
50180.0,STARLINK-3265,PAYLOAD,2023-11-23 12:51:40,15.0884252,0.0001648,53.2186,47.263,110.571,249.5459,2.9615e-05,1.83e-06,0.0,0 STARLINK-3265,1 50180U 21125AA  23327.53588809  .00000183  00000-0  29615-4 0  9997,2 50180  53.2186  47.2630 0001648 110.5710 249.5459 15.08842520110260,6917.873,95.437,540.878,538.598,0.0
50180.0,STARLINK-3265,PAYLOAD,2023-11-24 11:07:05,15.08829641,0.0001955,53.2193,43.0986,114.0137,246.106,-0.00014135,-2.536e-05,0.0,0 STARLINK-3265,1 50180U 21125AA  23328.46325917 -.00002536  00000-0 -14135-3 0  9995,2 50180  53.2193  43.0986 0001955 114.0137 246.1060 15.08829641107276,6917.912,95.438,541.13,538.425,0.0
50180.0,STARLINK-3265,PAYLOAD,2023-11-24 14:17:51,15.08833171,0.0001513,53.2184,42.5029,103.1144,257.0017,-5.7807e-05,-1.208e-05,0.0,0 STARLINK-3265,1 50180U 21125AA  23328.59573874 -.00001208  00000-0 -57807-4 0  9995,2 50180  53.2184  42.5029 0001513 103.1144 257.0017 15.08833171110422,6917.901,95.438,540.813,538.72,0.0
50180.0,STARLINK-3265,PAYLOAD,2023-11-25 14:08:38,15.08859837,0.0001619,53.2193,38.0429,98.8926,261.2249,0.00053338,8.215e-05,0.0,0 STARLINK-3265,1 50180U 21125AA  23329.58933259  .00008215  00000-0  53338-3 0  9999,2 50180  53.2193  38.0429 0001619  98.8926 261.2249 15.08859837110578,6917.82,95.436,540.805,538.565,0.0
50180.0,STARLINK-3265,PAYLOAD,2023-11-26 10:48:38,15.08859543,0.0001749,53.2182,34.1798,102.3498,257.769,0.00043123,6.585e-05,0.0,0 STARLINK-3265,1 50180U 21125AA  23330.45045002  .00006585  00000-0  43123-3 0  9996,2 50180  53.2182  34.1798 0001749 102.3498 257.7690 15.08859543107571,6917.821,95.436,540.896,538.476,0.0
50180.0,STARLINK-3265,PAYLOAD,2023-11-27 04:17:54,15.08831545,0.0001886,53.219,30.906,114.3224,245.7965,-0.00038856,-6.465e-05,0.0,0 STARLINK-3265,1 50180U 21125AA  23331.17909994 -.00006465  00000-0 -38856-3 0  9991,2 50180  53.2190  30.9060 0001886 114.3224 245.7965 15.08831545107684,6917.906,95.438,541.076,538.467,0.0
50180.0,STARLINK-3265,PAYLOAD,2023-11-27 09:04:04,15.08816809,0.0001746,53.2195,30.0131,111.8173,248.3005,-0.00057463,-9.416e-05,0.0,0 STARLINK-3265,1 50180U 21125AA  23331.37782708 -.00009416  00000-0 -57463-3 0  9999,2 50180  53.2195  30.0131 0001746 111.8173 248.3005 15.08816809107713,6917.951,95.439,541.024,538.608,0.0
50180.0,STARLINK-3265,PAYLOAD,2023-11-27 13:50:14,15.08816153,0.0002127,53.2199,29.1187,133.3935,226.7235,-0.00043242,-7.159e-05,0.0,0 STARLINK-3265,1 50180U 21125AA  23331.57655106 -.00007159  00000-0 -43242-3 0  9994,2 50180  53.2199  29.1187 0002127 133.3935 226.7235 15.08816153110874,6917.953,95.439,541.29,538.347,0.0
50180.0,STARLINK-3265,PAYLOAD,2023-11-28 10:30:14,15.08845694,0.0002008,53.2189,25.2611,115.285,244.835,0.00018318,2.629e-05,0.0,0 STARLINK-3265,1 50180U 21125AA  23332.43766726  .00002629  00000-0  18318-3 0  9992,2 50180  53.2189  25.2611 0002008 115.2850 244.8350 15.08845694107872,6917.863,95.437,541.117,538.339,0.0
50180.0,STARLINK-3265,PAYLOAD,2023-11-29 03:59:30,15.08825298,0.0001507,53.2178,21.989,98.8269,261.2894,0.00036107,5.461e-05,0.0,0 STARLINK-3265,1 50180U 21125AA  23333.16632370  .00005461  00000-0  36107-3 0  9993,2 50180  53.2178  21.9890 0001507  98.8269 261.2894 15.08825298107981,6917.925,95.438,540.833,538.748,0.0
50180.0,STARLINK-3265,PAYLOAD,2023-11-29 10:21:02,15.08837854,0.00019,53.2178,20.7946,120.6752,239.4428,0.00042607,6.499e-05,0.0,0 STARLINK-3265,1 50180U 21125AA  23333.43127907  .00006499  00000-0  42607-3 0  9992,2 50180  53.2178  20.7946 0001900 120.6752 239.4428 15.08837854108025,6917.887,95.438,541.066,538.438,0.0
50180.0,STARLINK-3265,PAYLOAD,2023-12-01 11:37:58,15.08854518,0.0001899,53.2202,11.5814,104.5138,255.6065,-5.5949e-06,-3.77e-06,0.0,0 STARLINK-3265,1 50180U 21125AA  23335.48470974 -.00000377  00000-0 -55949-5 0  9990,2 50180  53.2202  11.5814 0001899 104.5138 255.6065 15.08854518108338,6917.836,95.437,541.015,538.387,0.0
50180.0,STARLINK-3265,PAYLOAD,2023-12-02 09:53:21,15.08868562,0.0001784,53.219,7.4222,73.8049,286.3139,0.00039342,5.984e-05,0.0,0 STARLINK-3265,1 50180U 21125AA  23336.41205686  .00005984  00000-0  39342-3 0  9994,2 50180  53.2190   7.4222 0001784  73.8049 286.3139 15.08868562111604,6917.793,95.436,540.892,538.424,0.0
50180.0,STARLINK-3265,PAYLOAD,2023-12-03 11:19:34,15.08816993,0.0001453,53.2181,2.6592,102.2656,257.8499,-0.000289,-4.881e-05,0.0,0 STARLINK-3265,1 50180U 21125AA  23337.47192776 -.00004881  00000-0 -28900-3 0  9991,2 50180  53.2181   2.6592 0001453 102.2656 257.8499 15.08816993108637,6917.951,95.439,540.821,538.811,0.0
50180.0,STARLINK-3265,PAYLOAD,2023-12-04 11:10:21,15.0884418,0.0001956,53.22,358.1935,73.0989,287.0218,-8.5133e-05,-1.643e-05,0.0,0 STARLINK-3265,1 50180U 21125AA  23338.46552410 -.00001643  00000-0 -85133-4 0  9991,2 50180  53.2200 358.1935 0001956  73.0989 287.0218 15.08844180108780,6917.868,95.437,541.086,538.379,0.0
50180.0,STARLINK-3265,PAYLOAD,2023-12-05 11:01:08,15.08868091,0.0001592,53.2179,353.7368,89.6863,270.4311,0.00083818,0.00013087,0.0,0 STARLINK-3265,1 50180U 21125AA  23339.45912061  .00013087  00000-0  83818-3 0  9993,2 50180  53.2179 353.7368 0001592  89.6863 270.4311 15.08868091108930,6917.795,95.436,540.761,538.558,0.0
50180.0,STARLINK-3265,PAYLOAD,2023-12-06 04:30:22,15.08856833,0.0002372,53.2177,350.4585,127.2858,232.8351,0.00012838,1.756e-05,0.0,0 STARLINK-3265,1 50180U 21125AA  23340.18775559  .00001756  00000-0  12838-3 0  9998,2 50180  53.2177 350.4585 0002372 127.2858 232.8351 15.08856833109043,6917.829,95.436,541.335,538.053,0.0
50180.0,STARLINK-3265,PAYLOAD,2023-12-06 07:41:08,15.08853064,0.0001755,53.2185,349.8733,101.9913,258.1276,4.4767e-05,4.25e-06,0.0,0 STARLINK-3265,1 50180U 21125AA  23340.32023709  .00000425  00000-0  44767-4 0  9996,2 50180  53.2185 349.8733 0001755 101.9913 258.1276 15.08853064112194,6917.84,95.437,540.92,538.491,0.0
50180.0,STARLINK-3265,PAYLOAD,2023-12-07 04:21:09,15.08845259,0.0001895,53.2182,346.0075,112.2219,247.8974,-0.00011054,-2.047e-05,0.0,0 STARLINK-3265,1 50180U 21125AA  23341.18135500 -.00002047  00000-0 -11054-3 0  9990,2 50180  53.2182 346.0075 0001895 112.2219 247.8974 15.08845259109191,6917.864,95.437,541.04,538.418,0.0
50180.0,STARLINK-3265,PAYLOAD,2023-12-07 07:31:55,15.08844887,0.0001783,53.2181,345.413,108.6317,251.4869,-0.00015094,-2.69e-05,0.0,0 STARLINK-3265,1 50180U 21125AA  23341.31383576 -.00002690  00000-0 -15094-3 0  9995,2 50180  53.2181 345.4130 0001783 108.6317 251.4869 15.08844887112340,6917.865,95.437,540.964,538.497,0.0
50180.0,STARLINK-3265,PAYLOAD,2023-12-08 04:11:56,15.08836973,0.0001823,53.2184,341.5487,109.1364,250.9826,2.5598e-05,1.19e-06,0.0,0 STARLINK-3265,1 50180U 21125AA  23342.17495974  .00000119  00000-0  25598-4 0  9999,2 50180  53.2184 341.5487 0001823 109.1364 250.9826 15.08836973109348,6917.89,95.438,541.016,538.494,0.0
50180.0,STARLINK-3265,PAYLOAD,2023-12-08 08:58:05,15.08841856,0.0001784,53.2185,340.6518,103.1432,256.9759,4.6126e-05,4.46e-06,0.0,0 STARLINK-3265,1 50180U 21125AA  23342.37367950  .00000446  00000-0  46126-4 0  9996,2 50180  53.2185 340.6518 0001784 103.1432 256.9759 15.08841856112509,6917.875,95.437,540.974,538.506,0.0
50180.0,STARLINK-3265,PAYLOAD,2023-12-09 08:48:52,15.08845287,0.0001571,53.2183,336.1903,86.7973,273.3199,0.00013867,1.92e-05,0.0,0 STARLINK-3265,1 50180U 21125AA  23343.36727678  .00001920  00000-0  13867-3 0  9996,2 50180  53.2183 336.1903 0001571  86.7973 273.3199 15.08845287109526,6917.864,95.437,540.816,538.642,0.0
50180.0,STARLINK-3265,PAYLOAD,2023-12-10 08:39:41,15.08812346,0.0001854,53.2188,331.7316,77.9053,282.2147,0.00037038,5.607e-05,0.0,0 STARLINK-3265,1 50180U 21125AA  23344.36089571  .00005607  00000-0  37038-3 0  9992,2 50180  53.2188 331.7316 0001854  77.9053 282.2147 15.08812346109673,6917.965,95.439,541.113,538.547,0.0
